STARLINK-32611          
1 61976U 24210T   26068.32050971  .00035378  00000+0  12881-2 0  9994
2 61976  43.0003 181.8939 0002973 281.0334  79.0183 15.27599373 74822
PELICAN-6               
1 66703U 25276AP  26068.70709364  .00077979  00000+0  29726-2 0  9998
2 66703  97.4276 144.2072 0003569 157.8575 202.2819 15.26377980 15334
